O3B MPOWER F1           
1 54755U 22174A   24274.91022604 -.00000027  00000+0  00000+0 0  9993
2 54755   0.0531 345.7671 0006485 195.8512 225.3897  5.00113578 34120
